[{"OBJECT_NAME":"ONEWEB-0134","OBJECT_ID":"2020-100Y","EPOCH":"2026-03-09T20:45:10.456704","MEAN_MOTION":13.12443425,"ECCENTRICITY":0.00019999,"INCLINATION":87.9009,"RA_OF_ASC_NODE":10.3526,"ARG_OF_PERICENTER":85.5644,"MEAN_ANOMALY":274.5713,"EPHEMERIS_TYPE":0,"CLASSIFICATION_TYPE":"U","NORAD_CAT_ID":47280,"ELEMENT_SET_NO":999,"REV_AT_EPOCH":25168,"BSTAR":-0.0010293051,"MEAN_MOTION_DOT":-3.58e-6,"MEAN_MOTION_DDOT":0},{"OBJECT_NAME":"FENGYUN 1C DEB","OBJECT_ID":"1999-025AJR","EPOCH":"2026-03-09T01:24:58.868352","MEAN_MOTION":13.31238196,"ECCENTRICITY":0.0409107,"INCLINATION":100.0526,"RA_OF_ASC_NODE":114.6892,"ARG_OF_PERICENTER":21.4872,"MEAN_ANOMALY":7.8987,"EPHEMERIS_TYPE":0,"CLASSIFICATION_TYPE":"U","NORAD_CAT_ID":30527,"ELEMENT_SET_NO":999,"REV_AT_EPOCH":92505,"BSTAR":0.0013747353,"MEAN_MOTION_DOT":9.99e-6,"MEAN_MOTION_DDOT":0}]
